[{"OBJECT_NAME":"KUIPER-00050","OBJECT_ID":"2025-134L","EPOCH":"2026-03-09T16:37:17.406912","MEAN_MOTION":14.97208204,"ECCENTRICITY":0.00043267,"INCLINATION":51.8888,"RA_OF_ASC_NODE":211.9413,"ARG_OF_PERICENTER":323.7107,"MEAN_ANOMALY":36.3569,"EPHEMERIS_TYPE":0,"CLASSIFICATION_TYPE":"U","NORAD_CAT_ID":64510,"ELEMENT_SET_NO":999,"REV_AT_EPOCH":4037,"BSTAR":0.00054272515,"MEAN_MOTION_DOT":6.094e-5,"MEAN_MOTION_DDOT":0},{"OBJECT_NAME":"DMSP 5D-2 F12 DEB","OBJECT_ID":"1994-057D","EPOCH":"2026-03-09T16:53:24.857088","MEAN_MOTION":14.9537003,"ECCENTRICITY":0.00045084,"INCLINATION":98.0659,"RA_OF_ASC_NODE":110.2499,"ARG_OF_PERICENTER":136.2971,"MEAN_ANOMALY":344.9264,"EPHEMERIS_TYPE":0,"CLASSIFICATION_TYPE":"U","NORAD_CAT_ID":23250,"ELEMENT_SET_NO":999,"REV_AT_EPOCH":65299,"BSTAR":0.0022486615,"MEAN_MOTION_DOT":0.00024839,"MEAN_MOTION_DDOT":0}]
